satname,norad_id,inclination_deg,eccentricity,mean_motion_rev_per_day,perigee_km,apogee_km,l1,l2
STARLINK-1008,44714,53.0513,0.0001315,15.06398005,546.3069881932815,548.1283564721043,1 44714U 19074B   25283.89364337  .00003515  00000+0  25478-3 0  9996,2 44714  53.0513 139.0789 0001315  94.1653 265.9486 15.06398005326170
STARLINK-1010,44716,53.0472,0.0003083,15.8628465,310.6471280490032,314.7727042575025,1 44716U 19074D   25283.91670139  .00300768  00000+0  11419-2 0  9990,2 44716  53.0472  77.1114 0003083  97.6425 316.1018 15.86284650  5991
STARLINK-1011,44717,53.0478,0.0005378,15.75710219,338.99651165369323,346.22534812708363,1 44717U 19074E   25283.91670139  .00125716  00000+0  79499-3 0  9992,2 44717  53.0478 132.4280 0005378 139.9368  64.5388 15.75710219  5977
STARLINK-1012,44718,53.0523,0.0001571,15.06401388,546.1193323313055,548.2952755115984,1 44718U 19074F   25283.87152266  .00003877  00000+0  27902-3 0  9999,2 44718  53.0523 139.1800 0001571  87.0716 273.0453 15.06401388326167
STARLINK-1017,44723,53.0507,0.000486,15.12882403,524.0588027178392,530.7709991655547,1 44723U 19074L   25283.88200102  .00032404  00000+0  18286-2 0  9991,2 44723  53.0507 136.8047 0004860 108.5765 251.5755 15.12882403326208
STARLINK-1019,44724,53.0539,0.0001927,15.06401709,545.8718064465866,548.5408337621548,1 44724U 19074M   25283.86783861  .00002916  00000+0  21455-3 0  9996,2 44724  53.0539 139.1974 0001927  88.8329 271.2880 15.06401709326168
STARLINK-1020,44725,53.053,0.0001632,15.06377269,546.1509978009772,548.4114543099613,1 44725U 19074N   25283.67433775 -.00001352  00000+0 -71926-4 0  9996,2 44725  53.0530 160.0652 0001632 215.9493 144.1386 15.06377269325851
STARLINK-1021,44726,53.0288,0.0005291,16.32183472,183.20504309785156,190.15193084616476,1 44726U 19074P   25283.72145507  .05363232  12186-4  92373-3 0  9998,2 44726  53.0288  68.0865 0005291 316.3361  43.7263 16.32183472327143
STARLINK-1029,44734,53.0488,0.0004596,16.07085413,251.80233039354516,257.8993728267451,1 44734U 19074X   25283.36053596  .00691669  25397-3  86502-3 0  9990,2 44734  53.0488 355.2387 0004596  13.4819 346.6335 16.07085413328115
STARLINK-1031,44736,53.0522,0.0009698,15.42014262,433.5528354418175,446.77761443731015,1 44736U 19074Z   25282.99309880  .00087447  00000+0  20028-2 0  9993,2 44736  53.0522 138.2879 0009698 112.1281 248.0754 15.42014262326119
STARLINK-1036,44741,53.0498,8.94e-05,15.06389325,546.6251463829776,547.8634045550316,1 44741U 19074AE  25283.04035273  .00003025  00000+0  22191-3 0  9992,2 44741  53.0498 162.9112 0000894  82.4639 277.6451 15.06389325325763
STARLINK-1039,44744,53.051,0.0007037,15.11128503,527.8939840053426,537.6203764746124,1 44744U 19074AH  25283.71433517  .00019063  00000+0  11384-2 0  9992,2 44744  53.0510 178.6561 0007037  79.3584 280.8200 15.11128503325609
STARLINK-1042,44747,53.0472,0.0003352,15.41984566,437.9672396788483,442.5382881765863,1 44747U 19074AL  25283.85809568  .00020150  00000+0  47396-3 0  9995,2 44747  53.0472  89.4013 0003352  75.0019 285.1356 15.41984566326896
STARLINK-1043,44748,53.0529,0.0001959,15.06408047,545.830224200985,548.5435661031061,1 44748U 19074AM  25283.74252759  .00006275  00000+0  43967-3 0  9990,2 44748  53.0529 179.7588 0001959  77.1688 282.9520 15.06408047325596
STARLINK-1046,44751,53.0524,0.0001815,15.06401388,545.9503539302905,548.4642539126144,1 44751U 19074AQ  25283.42553133  .00001867  00000+0  14423-3 0  9996,2 44751  53.0524 181.1820 0001815  91.6645 268.4552 15.06401388325546
STARLINK-1047,44752,53.0699,0.0005392,15.28635601,476.19221778069004,483.5879141686364,1 44752U 19074AR  25283.84156317  .00010201  00000+0  37335-3 0  9995,2 44752  53.0699 123.9775 0005392 110.9589 249.1987 15.28635601326392
STARLINK-1048,44753,53.051,0.0001029,15.06392523,546.521853236507,547.9470946858482,1 44753U 19074AS  25283.05325690  .00017906  00000+0  12182-2 0  9992,2 44753  53.0510 142.8523 0001029 113.0521 247.0577 15.06392523326042
STARLINK-1053,44758,53.0394,0.000123,15.57666056,393.5807657186342,395.24681321284334,1 44758U 19074AX  25283.77127084  .00047230  00000+0  62967-3 0  9993,2 44758  53.0394 105.7265 0001230 146.2053 213.9036 15.57666056326649
STARLINK-1054,44759,53.0396,0.0006468,15.76036997,337.3355252571473,346.02828299152134,1 44759U 19074AY  25283.91670139  .00260545  00000+0  15939-2 0  9996,2 44759  53.0396 132.6183 0006468 109.6410 357.5425 15.76036997  5904
STARLINK-1056,44761,53.0386,0.0004528,15.88399681,303.74221424052575,309.7960652406746,1 44761U 19074BA  25283.91670139  .00289126  00000+0  99038-3 0  9998,2 44761  53.0386 120.2898 0004528 117.2574   5.4914 15.88399681  5999
STARLINK-1060,44765,53.0538,0.0001103,15.57100306,395.30696946814805,396.80135603865074,1 44765U 19074BE  25283.91670139  .01144567  00000+0  14200-1 0  9998,2 44765  53.0538 151.3764 0001103  64.8957 133.1657 15.57100306  5732
STARLINK-1063,44768,53.0532,0.0001474,15.06418045,546.1354649387922,548.1770413898239,1 44768U 19074BH  25283.81254782  .00007792  00000+0  54113-3 0  9998,2 44768  53.0532 179.4448 0001474 101.4572 258.6583 15.06418045325610
STARLINK-1067,44771,53.053,0.0001474,15.06406475,546.1709196146257,548.2125065192367,1 44771U 19074BL  25283.73515056  .00007602  00000+0  52857-3 0  9990,2 44771  53.0530 179.7928 0001474  86.3081 273.8077 15.06406475325592
STARLINK-1068,44772,53.0507,0.0001562,15.06396573,546.1403201342491,548.3038023049739,1 44772U 19074BM  25283.65957182  .00000721  00000+0  67316-4 0  9994,2 44772  53.0507 160.1321 0001562  87.7642 272.3525 15.06396573325852
STARLINK-1112,44925,53.0516,0.0001443,15.49870565,416.1238188154466,418.0849254754485,1 44925U 20001M   25283.91670139  .00143894  00000+0  24978-2 0  9993,2 44925  53.0516 263.5122 0001443  86.0530 209.8228 15.49870565  5906
STARLINK-1114,44927,53.0546,0.0001596,15.06394995,546.121609506843,548.3321856629518,1 44927U 20001P   25283.76462986 -.00000490  00000+0 -14003-4 0  9993,2 44927  53.0546 299.6611 0001596  87.1195 272.9977 15.06394995317259
STARLINK-1123,44930,53.054,0.0001379,15.06397539,546.2640939528301,548.1741071653641,1 44930U 20001S   25283.77937476  .00000166  00000+0  30037-4 0  9992,2 44930  53.0540 299.5935 0001379  81.5844 278.5301 15.06397539317253
STARLINK-1144,44933,53.0462,0.001271,15.54763594,394.22129784523077,411.4585411746257,1 44933U 20001V   25283.60840955  .00069088  00000+0  10160-2 0  9993,2 44933  53.0462 242.7901 0012710  18.6264 341.5208 15.54763594319339
STARLINK-1091,44940,53.0389,0.0003119,15.86725588,309.3838159725119,313.55679300905376,1 44940U 20001AC  25283.91670139  .00332596  00000+0  12311-2 0  9997,2 44940  53.0389 222.8058 0003119  91.7345 264.8742 15.86725588  5992
STARLINK-1094,44941,53.0542,0.0001282,15.06400765,546.3213839399004,548.0970427089969,1 44941U 20001AD  25283.26149463  .00000520  00000+0  53828-4 0  9996,2 44941  53.0542 281.9158 0001282 105.7806 254.3324 15.06400765317454
STARLINK-1096,44942,52.9913,0.0004143,15.81918436,322.23863766278464,327.7928700346238,1 44942U 20001AE  25283.91670139  .00159888  00000+0  76058-3 0  9999,2 44942  52.9913  49.6613 0004143 324.4840 126.6883 15.81918436  5948
STARLINK-1122,44949,53.0541,0.0001534,15.06396425,546.1601646704794,548.2848649696261,1 44949U 20001AM  25283.68169507 -.00000977  00000+0 -46695-4 0  9993,2 44949  53.0541 280.0277 0001534  92.4887 267.6278 15.06396425317513
STARLINK-1080,44961,53.0531,0.0001611,15.06400028,546.0957984834522,548.32714576117,1 44961U 20001AZ  25283.34811812  .00004008  00000+0  28785-3 0  9999,2 44961  53.0531 261.5284 0001611  83.9834 276.1339 15.06400028317755
STARLINK-1090,44968,53.054,0.0001414,15.06403813,546.2206290334461,548.1791143007531,1 44968U 20001BG  25283.21910677  .00000538  00000+0  54996-4 0  9999,2 44968  53.0540 262.1086 0001414  95.9058 264.2092 15.06403813317738
STARLINK-1107,44972,53.0102,0.0007321,15.61239829,379.1240399861781,389.0252702916332,1 44972U 20001BL  25283.91670139  .00088806  00000+0  10223-2 0  9994,2 44972  53.0102 182.1138 0007321 136.4647 204.9945 15.61239829  5832
STARLINK-1132,45044,53.0558,0.0001492,15.06392831,546.2002646948185,548.2667952609636,1 45044U 20006A   25283.84203778 -.00000229  00000+0  34936-5 0  9997,2 45044  53.0558 219.3113 0001492  97.6764 262.4394 15.06392831314152
STARLINK-1131,45047,53.0543,0.0001437,15.06402768,546.2079030612367,548.1982457986269,1 45047U 20006D   25283.61910047 -.00000574  00000+0 -19646-4 0  9993,2 45047  53.0543 240.8527 0001437  81.8179 278.2973 15.06402768313834
STARLINK-1134,45048,53.0372,0.0011254,15.25659194,481.0786552845284,496.5347721954158,1 45048U 20006E   25283.85883884  .00013207  00000+0  52378-3 0  9991,2 45048  53.0372 220.5125 0011254  76.6646 283.5605 15.25659194314147
STARLINK-1156,45054,53.0546,0.0001548,15.06402311,546.1324322048367,548.2765179255166,1 45054U 20006L   25283.58954973 -.00001460  00000+0 -79107-4 0  9996,2 45054  53.0546 240.4462 0001548  89.4117 270.7049 15.06402311313833
STARLINK-1159,45057,53.0537,0.0001768,15.06396168,545.9988987897841,548.4477061927455,1 45057U 20006P   25283.86969009  .00006438  00000+0  45073-3 0  9998,2 45057  53.0537 239.1874 0001768  93.5664 266.5527 15.06396168313886
STARLINK-1166,45060,53.0536,0.0001411,15.06393612,546.2539668633899,548.2083057514565,1 45060U 20006S   25283.88074480  .00005120  00000+0  36239-3 0  9995,2 45060  53.0536 239.1381 0001411 100.5147 259.6001 15.06393612313883
STARLINK-1169,45061,53.0554,0.000197,15.06392801,545.869323911782,548.5979199368194,1 45061U 20006T   25283.15830569  .00004554  00000+0  32448-3 0  9992,2 45061  53.0554 242.3828 0001970  67.2416 292.8781 15.06392801313775
STARLINK-1171,45062,53.0539,0.0001276,15.06407668,546.3043852451237,548.0717281995985,1 45062U 20006U   25283.60796953  .00002839  00000+0  20938-3 0  9996,2 45062  53.0539 240.3574 0001276  96.6314 263.4821 15.06407668313842
